ONEWEB-0435             
1 51632U 22012L   25206.46186230  .00000612  00000+0  17174-2 0  9999
2 51632  87.8812 101.4518 0002271  76.2622 283.8758 13.10375028166521
ONEWEB-0436             
1 51633U 22012M   25206.53480138  .00000001  00000+0 -29668-4 0  9998
2 51633  87.9034  70.8581 0001972  78.0050 282.1302 13.17650719170667
ONEWEB-0438             
1 51634U 22012N   25206.44525013 -.00000133  00000+0 -41631-3 0  9991
2 51634  87.8812 101.4557 0001727  81.8296 278.3027 13.10376602166550
ONEWEB-0439             
1 51635U 22012P   25206.21949984  .00000182  00000+0  48546-3 0  9998
2 51635  87.8814 101.4889 0001905  78.3483 281.7858 13.10376672166500
ONEWEB-0442             
1 51636U 22012Q   25206.52721991  .00000017  00000+0  11369-4 0  9990
2 51636  87.9040  70.9126 0001250  97.4023 262.7251 13.17649578170654
ONEWEB-0443             
1 51637U 22012R   25206.31881530  .00000115  00000+0  26320-3 0  9995
2 51637  87.9035  70.9639 0001852  92.1717 267.9627 13.17650268170672
ONEWEB-0444             
1 51638U 22012S   25206.43860820 -.00000413  00000+0 -12187-2 0  9996
2 51638  87.8809 101.4466 0002006  79.4415 280.6939 13.10375786166545
ONEWEB-0445             
1 51639U 22012T   25206.46018937  .00000586  00000+0  16410-2 0  9996
2 51639  87.8804 101.3951 0001675  75.1859 284.9454 13.10376154166555
